CUTE-1 (CO-55)          
1 27844U 03031E   23131.25865912  .00000543  00000+0  26180-3 0  9991
2 27844  98.6789 139.0562 0008841 227.7556 132.2873 14.22756359 30480
CUBESAT XI-IV (CO-57)   
1 27848U 03031J   23131.25708124  .00000468  00000+0  23049-3 0  9993
2 27848  98.6826 139.4841 0008561 244.3539 115.6755 14.22269859 30258
CUBESAT XI-V            
1 28895U 05043F   23131.61430964  .00002817  00000+0  52732-3 0  9996
2 28895  98.1482 263.9682 0016388 183.1273 176.9830 14.65539473935685
CUTE-1.7+APD II (CO-65) 
1 32785U 08021C   23131.44900439  .00005627  00000+0  55943-3 0  9997
2 32785  97.7036  98.2047 0010978 218.7677 141.2755 14.92026816815347
AAUSAT-II               
1 32788U 08021F   23131.41431981  .00013258  00000+0  98260-3 0  9996
2 32788  97.5608 111.6766 0010272 114.9398 245.2896 15.03187423817589
DELFI-C3 (DO-64)        
1 32789U 08021G   23131.00304977  .00073519  00000+0  23006-2 0  9997
2 32789  97.3069 152.8429 0005130 226.5203 133.5613 15.32831687821686
SEEDS II (CO-66)        
1 32791U 08021J   23131.43032213  .00007112  00000+0  63313-3 0  9990
2 32791  97.6542 103.4569 0012234 166.4679 193.6873 14.96297444816165
SWISSCUBE               
1 35932U 09051B   23131.12404457  .00001586  00000+0  35848-3 0  9994
2 35932  98.5264   0.5967 0008590 115.7300 244.4785 14.57648126723813
BEESAT-1                
1 35933U 09051C   23131.42690098  .00001361  00000+0  30959-3 0  9995
2 35933  98.5190   2.2705 0006675 124.3235 235.8595 14.57566968723935
ITUPSAT1                
1 35935U 09051E   23131.44321221  .00001239  00000+0  28848-3 0  9996
2 35935  98.5291   2.2456 0008872 130.5160 229.6811 14.56621895723616
TISAT 1                 
1 36799U 10035E   23131.22797922  .00006767  00000+0  60872-3 0  9994
2 36799  98.1408 359.4155 0012483  96.8725 263.3916 14.95937228696701
M-CUBED & EXP-1 PRIME   
1 37855U 11061F   23131.40867483  .00025276  00000+0  82756-3 0  9999
2 37855 101.7046  72.5386 0123916 152.2840 208.5059 15.24522965630957
AEROCUBE 4.5A           
1 38767U 12048K   23131.42686955  .00008692  00000+0  58911-3 0  9992
2 38767  64.6626 157.7689 0129847 167.7502 192.6824 15.00342257199870
AEROCUBE 4.5B           
1 38768U 12048L   23131.27481262  .00012706  00000+0  73594-3 0  9995
2 38768  64.6637 103.8171 0109997 161.9241 198.5839 15.07469212200402
STRAND-1                
1 39090U 13009E   23131.48141697  .00000548  00000+0  20498-3 0  9996
2 39090  98.3904 325.8485 0009361  21.6956 338.4625 14.35575224534459
BRITE-AUSTRIA           
1 39091U 13009F   23131.47725856  .00000359  00000+0  13969-3 0  9996
2 39091  98.3933 325.0659 0010935  27.1166 333.0589 14.35470198534487
SOMP                    
1 39134U 13015E   23131.21755584  .00099972  00000+0  14270-2 0  9998
2 39134  64.8516  52.3737 0016461 253.2890 106.6448 15.55578336557224
BEESAT-3                
1 39135U 13015F   23131.25648978  .00048643  00000+0  11884-2 0  9998
2 39135  64.8589 100.7163 0021006 245.3027 114.5923 15.40322648556672
BEESAT-2                
1 39136U 13015G   23131.55790361  .00040971  00000+0  10895-2 0  9993
2 39136  64.8681 110.6991 0026379 280.1592  79.6569 15.37660282556040
NEE-01 PEGASO           
1 39151U 13018B   23131.54428702  .00003479  00000+0  43803-3 0  9997
2 39151  98.0047 241.6646 0014786 270.4483  89.5035 14.82609073542261
ESTCUBE 1               
1 39161U 13021C   23131.43363970  .00002395  00000+0  36998-3 0  9998
2 39161  97.8709 204.7418 0010538  89.5685 270.6748 14.74184220537761
POPACS 1                
1 39268U 13055D   23131.00937366  .00021781  00000+0  50017-3 0  9990
2 39268  80.9944 243.6565 0512306 281.5635  72.8497 14.65010145500999
POPACS 2                
1 39269U 13055E   23131.25298929  .00021017  00000+0  53556-3 0  9996
2 39269  81.0064 311.4405 0610230  97.5881 269.5017 14.42295716497256
POPACS 3                
1 39270U 13055F   23131.31923309  .00010340  00000+0  30383-3 0  9992
2 39270  81.0141 350.8686 0664594 208.7021 147.6041 14.27797169475303
ZACUBE-1 (TSHEPISOSAT)  
1 39417U 13066B   23131.43832793  .00006442  00000+0  74510-3 0  9994
2 39417  97.6831  94.4062 0056562  49.6606 310.9529 14.84707644511742
WNISAT-1                
1 39423U 13066H   23131.40630986  .00001083  00000+0  21981-3 0  9998
2 39423  97.7068 352.9674 0172123 191.8527 167.8621 14.54110993502101
TRITON-1                
1 39427U 13066M   23131.36868292  .00004062  00000+0  61590-3 0  9990
2 39427  97.8345  58.6263 0106888 296.1606  62.8638 14.70848013506947
DELFI-N3XT              
1 39428U 13066N   23131.34407100  .00007356  00000+0  10641-2 0  9995
2 39428  97.8326  57.4946 0109950 308.4485  50.6894 14.72338231506719
GOMX-1                  
1 39430U 13066Q   23131.56602537  .00002755  00000+0  48248-3 0  9996
2 39430  97.7848  24.8386 0147421  89.1937 272.6167 14.61648943504197
CUBEBUG-2 (LO-74)       
1 39440U 13066AA  23131.44003838  .00003909  00000+0  50820-3 0  9994
2 39440  97.7702  81.4061 0076603 145.6625 214.9573 14.79177223508721
NEE-02 KRYSAOR          
1 39441U 13066AB  23131.36787040  .00002694  00000+0  36773-3 0  9991
2 39441  97.7811  78.2233 0078882 162.1425 198.2586 14.77280664508417
FUNCUBE-1 (AO-73)       
1 39444U 13066AE  23131.44253925  .00007857  00000+0  87320-3 0  9993
2 39444  97.6694  96.9257 0054522  35.7965 324.6886 14.86349219510187
UWE-3                   
1 39446U 13066AG  23131.42948140  .00005269  00000+0  64764-3 0  9995
2 39446  97.7324  87.5828 0067593  98.9935 261.8937 14.81798266508989
BRITE-CA1 (TORONTO)     
1 40020U 14033L   23131.34806130  .00001288  00000+0  22218-3 0  9998
2 40020  97.8210 279.5886 0084199 298.1496  61.1221 14.67895205475747
DUCHIFAT-1              
1 40021U 14033M   23131.40893774  .00009860  00000+0  85068-3 0  9992
2 40021  98.0554  94.2061 0012337  41.9046 318.3117 14.97432795483686
NANOSATC-BR1            
1 40024U 14033Q   23131.39243781  .00008277  00000+0  75147-3 0  9998
2 40024  98.0253  85.6146 0012077  50.1038 310.1241 14.95494719482912
QB50P1                  
1 40025U 14033R   23131.29180330  .00006064  00000+0  57941-3 0  9992
2 40025  97.9947  77.4077 0012872  60.5676 299.6826 14.93582312482633
QB50P2                  
1 40032U 14033Y   23131.46150277  .00006537  00000+0  63706-3 0  9997
2 40032  97.9659  71.5609 0012492  59.0435 301.2009 14.92769579482499
PERSEUS-M2              
1 40037U 14033AD  23131.29758721  .00002364  00000+0  26126-3 0  9990
2 40037  97.9074  57.0475 0015530  82.6622 277.6359 14.88290178481864
PERSEUS-M1              
1 40039U 14033AF  23131.57918260  .00002705  00000+0  30065-3 0  9995
2 40039  97.8935  54.4151 0015350  81.3518 278.9437 14.87939473481771
POLYITAN-1              
1 40042U 14033AJ  23131.44731290  .00008474  00000+0  79214-3 0  9999
2 40042  98.0058  79.3503 0014451  52.4018 307.8511 14.94313200482550
TIGRISAT                
1 40043U 14033AK  23131.45250218  .00003580  00000+0  50856-3 0  9991
2 40043  97.6644 308.3513 0058175 171.5638 188.6565 14.76352416477993
AEROCUBE 6A             
1 40045U 14033AM  23131.48464517  .00006450  00000+0  86788-3 0  9997
2 40045  97.6585 318.0120 0055678 156.7017 203.6737 14.78462124478442
AEROCUBE 6B             
1 40046U 14033AN  23131.46941057  .00006892  00000+0  91144-3 0  9997
2 40046  97.6529 316.4457 0054336 154.0080 206.3880 14.79219221478221
UKUBE-1                 
1 40074U 14037F   23131.27034640  .00005175  00000+0  57031-3 0  9992
2 40074  98.3485  33.8254 0003446 330.6308  29.4720 14.87995553478761
BRITE-PL2 (HEWELIUSZ)   
1 40119U 14049B   23131.49045945  .00003144  00000+0  36144-3 0  9995
2 40119  97.8783 228.9207 0015476 245.4433 114.5170 14.86440694472713
FIREBIRD 4              
1 40378U 15003C   23131.39932078  .00159079  00000+0  16027-2 0  9990
2 40378  99.0781  79.9967 0044963 340.7814  19.1742 15.63589448458888
GRIFEX                  
1 40379U 15003D   23131.58381898  .00047365  00000+0  11001-2 0  9991
2 40379  99.0780  59.5973 0086737  38.7642 321.9778 15.38282797457743
CP10 (EXOCUBE)          
1 40380U 15003E   23131.54071255  .00030037  00000+0  86593-3 0  9999
2 40380  99.0842  49.8747 0102294  70.3413 290.8827 15.30534634457112
EXACTVIEW 9             
1 40936U 15052G   23130.53628827  .00003608  00000+0  39617-3 0  9990
2 40936   6.0049 357.4081 0009382 116.4244 243.6847 14.78417010411716
AEROCUBE 5C             
1 40965U 15058B   23131.40195210  .00003344  00000+0  37888-3 0  9995
2 40965  64.7712 153.9592 0161829  85.8501 276.1081 14.79072755197404
AEROCUBE 7              
1 40966U 15058C   23131.50098809  .00004096  00000+0  45255-3 0  9995
2 40966  64.7702 150.0063 0159360  85.5147 276.4145 14.79961728197439
ATHENOXAT 1             
1 41168U 15077C   23130.73094613  .00132394  00000+0  22043-2 0  9996
2 41168  14.9885 153.7216 0005855 202.9417 303.0060 15.50096558410483
GALASSIA                
1 41170U 15077E   23128.46671277  .00048796  00000+0  12981-2 0  9995
2 41170  14.9854 175.1207 0008346 186.7102 173.3111 15.36268575409935
VELOX-II                
1 41171U 15077F   23130.96729650  .00029965  00000+0  10929-2 0  9990
2 41171  14.9902 252.8584 0006444  26.0090 334.0556 15.26017289409505
HORYU-4                 
1 41340U 16012D   23131.24766167  .00009439  00000+0  60133-3 0  9991
2 41340  31.0047  60.8326 0011927 234.1801 125.7728 15.07414425397142
E-ST@R-II               
1 41459U 16025D   23131.64591655  .00032925  00000+0  10069-2 0  9996
2 41459  98.1895 329.3026 0111022 225.5680 205.5706 15.27853513387312
AAUSAT 4                
1 41460U 16025E   23131.08658087  .00106098  00000+0  17411-2 0  9990
2 41460  98.1656 340.0187 0069587 185.6106 174.4371 15.49298503388010
BEESAT-4                
1 41619U 16040W   23131.10575683  .00082520  00000+0  12465-2 0  9993
2 41619  97.1622 180.5194 0003852  39.6310 320.5225 15.54439962371107
